start=new Date('2023-03-22T00:00:00.000Z').valueOf();
sats=[{"PERIOD":"95.438","EPHEMERIS_TYPE":"0","MEAN_MOTION_DOT":"0.00001243","REF_FRAME":"TEME","TLE_LINE2":"2 50816  53.2183 354.2900 0001077 107.1534 252.9576 15.08839358 66797","FILE":"3866953","DECAY_DATE":null,"MEAN_ANOMALY":"252.9576","CLASSIFICATION_TYPE":"U","APOAPSIS":"540.492","ARG_OF_PERICENTER":"107.1534","NORAD_CAT_ID":"50816","RA_OF_ASC_NODE":"354.2900","BSTAR":"0.00009616800000","PERIAPSIS":"539.002","EPOCH":"2023-03-21T22:25:14.711520","MEAN_ELEMENT_THEORY":"SGP4","TLE_LINE1":"1 50816U 22001P   23080.93419805  .00001243  00000-0  96168-4 0  9991","REV_AT_EPOCH":"6679","GP_ID":"228620706","TIME_SYSTEM":"UTC","OBJECT_NAME":"STARLINK-3342","ECCENTRICITY":"0.00010770","ELEMENT_SET_NO":"999","MEAN_MOTION_DDOT":"0.0000000000000","CENTER_NAME":"EARTH","OBJECT_TYPE":"PAYLOAD","RCS_SIZE":"LARGE","SEMIMAJOR_AXIS":"6917.882","LAUNCH_DATE":"2022-01-06","MEAN_MOTION":"15.08839358","COUNTRY_CODE":"US","INCLINATION":"53.2183","OBJECT_ID":"2022-001P","SITE":"AFETR"},{"ECCENTRICITY":"0.00012900","MEAN_MOTION_DDOT":"0.0000000000000","ELEMENT_SET_NO":"999","OBJECT_TYPE":"PAYLOAD","CENTER_NAME":"EARTH","MEAN_MOTION":"15.08848976","SEMIMAJOR_AXIS":"6917.853","LAUNCH_DATE":"2022-01-06","RCS_SIZE":"LARGE","COUNTRY_CODE":"US","SITE":"AFETR","INCLINATION":"53.2168","OBJECT_ID":"2022-001Q","PERIOD":"95.437","EPHEMERIS_TYPE":"0","FILE":"3866953","TLE_LINE2":"2 50817  53.2168 354.4681 0001290  88.5027 271.6113 15.08848976 66796","REF_FRAME":"TEME","MEAN_MOTION_DOT":"0.00020783","MEAN_ANOMALY":"271.6113","CLASSIFICATION_TYPE":"U","DECAY_DATE":null,"NORAD_CAT_ID":"50817","ARG_OF_PERICENTER":"88.5027","APOAPSIS":"540.610","PERIAPSIS":"538.826","EPOCH":"2023-03-21T21:26:57.369984","BSTAR":"0.00131970000000","RA_OF_ASC_NODE":"354.4681","TLE_LINE1":"1 50817U 22001Q   23080.89371956  .00020783  00000-0  13197-2 0  9990","MEAN_ELEMENT_THEORY":"SGP4","GP_ID":"228620958","REV_AT_EPOCH":"6679","TIME_SYSTEM":"UTC","OBJECT_NAME":"STARLINK-3341"},{"MEAN_MOTION_DDOT":"0.0000000000000","ELEMENT_SET_NO":"999","ECCENTRICITY":"0.00009350","OBJECT_TYPE":"PAYLOAD","CENTER_NAME":"EARTH","COUNTRY_CODE":"US","MEAN_MOTION":"15.08854545","SEMIMAJOR_AXIS":"6917.836","LAUNCH_DATE":"2022-01-06","RCS_SIZE":"LARGE","SITE":"AFETR","OBJECT_ID":"2022-001R","INCLINATION":"53.2187","FILE":"3866730","TLE_LINE2":"2 50818  53.2187 357.8225 0000935  98.2918 261.8180 15.08854545 66672","REF_FRAME":"TEME","MEAN_MOTION_DOT":"0.00002397","EPHEMERIS_TYPE":"0","PERIOD":"95.437","NORAD_CAT_ID":"50818","ARG_OF_PERICENTER":"98.2918","APOAPSIS":"540.348","MEAN_ANOMALY":"261.8180","CLASSIFICATION_TYPE":"U","DECAY_DATE":null,"TLE_LINE1":"1 50818U 22001R   23080.14667069  .00002397  00000-0  16857-3 0  9990","MEAN_ELEMENT_THEORY":"SGP4","EPOCH":"2023-03-21T03:31:12.347616","PERIAPSIS":"539.054","BSTAR":"0.00016857000000","RA_OF_ASC_NODE":"357.8225","OBJECT_NAME":"STARLINK-3336","TIME_SYSTEM":"UTC","GP_ID":"228589954","REV_AT_EPOCH":"6667"},{"REV_AT_EPOCH":"6669","GP_ID":"228589706","TIME_SYSTEM":"UTC","OBJECT_NAME":"STARLINK-3327","EPOCH":"2023-03-21T05:17:11.208768","PERIAPSIS":"538.947","RA_OF_ASC_NODE":"357.4916","BSTAR":"0.00059671000000","TLE_LINE1":"1 50819U 22001S   23080.22026862  .00009225  00000-0  59671-3 0  9998","MEAN_ELEMENT_THEORY":"SGP4","DECAY_DATE":null,"MEAN_ANOMALY":"257.5692","CLASSIFICATION_TYPE":"U","NORAD_CAT_ID":"50819","ARG_OF_PERICENTER":"102.5422","APOAPSIS":"540.461","EPHEMERIS_TYPE":"0","PERIOD":"95.437","TLE_LINE2":"2 50819  53.2158 357.4916 0001094 102.5422 257.5692 15.08853635 66691","FILE":"3866730","REF_FRAME":"TEME","MEAN_MOTION_DOT":"0.00009225","SITE":"AFETR","INCLINATION":"53.2158","OBJECT_ID":"2022-001S","MEAN_MOTION":"15.08853635","RCS_SIZE":"LARGE","SEMIMAJOR_AXIS":"6917.839","LAUNCH_DATE":"2022-01-06","COUNTRY_CODE":"US","OBJECT_TYPE":"PAYLOAD","CENTER_NAME":"EARTH","ECCENTRICITY":"0.00010940","MEAN_MOTION_DDOT":"0.0000000000000","ELEMENT_SET_NO":"999"},{"CENTER_NAME":"EARTH","OBJECT_TYPE":"PAYLOAD","ECCENTRICITY":"0.00011490","ELEMENT_SET_NO":"999","MEAN_MOTION_DDOT":"0.0000000000000","INCLINATION":"53.2183","OBJECT_ID":"2022-001T","SITE":"AFETR","SEMIMAJOR_AXIS":"6917.890","LAUNCH_DATE":"2022-01-06","RCS_SIZE":"LARGE","MEAN_MOTION":"15.08836758","COUNTRY_CODE":"US","MEAN_ANOMALY":"278.0051","CLASSIFICATION_TYPE":"U","DECAY_DATE":null,"ARG_OF_PERICENTER":"82.1071","APOAPSIS":"540.550","NORAD_CAT_ID":"50820","PERIOD":"95.438","EPHEMERIS_TYPE":"0","REF_FRAME":"TEME","MEAN_MOTION_DOT":"0.00002362","FILE":"3866953","TLE_LINE2":"2 50820  53.2183 354.3038 0001149  82.1071 278.0051 15.08836758 66791","GP_ID":"228620207","REV_AT_EPOCH":"6679","TIME_SYSTEM":"UTC","OBJECT_NAME":"STARLINK-3339","BSTAR":"0.00016642000000","RA_OF_ASC_NODE":"354.3038","PERIAPSIS":"538.960","EPOCH":"2023-03-21T22:19:56.702496","MEAN_ELEMENT_THEORY":"SGP4","TLE_LINE1":"1 50820U 22001T   23080.93051739  .00002362  00000-0  16642-3 0  9995"},{"REF_FRAME":"TEME","MEAN_MOTION_DOT":"0.00008673","TLE_LINE2":"2 50821  53.2191 354.3708 0000947  47.9905 312.1168 15.08855318 68047","FILE":"3866915","EPHEMERIS_TYPE":"0","PERIOD":"95.437","APOAPSIS":"540.354","ARG_OF_PERICENTER":"47.9905","NORAD_CAT_ID":"50821","DECAY_DATE":null,"MEAN_ANOMALY":"312.1168","CLASSIFICATION_TYPE":"U","MEAN_ELEMENT_THEORY":"SGP4","TLE_LINE1":"1 50821U 22001U   23080.91579259  .00008673  00000-0  56209-3 0  9990","RA_OF_ASC_NODE":"354.3708","BSTAR":"0.00056209000000","EPOCH":"2023-03-21T21:58:44.479776","PERIAPSIS":"539.043","TIME_SYSTEM":"UTC","OBJECT_NAME":"STARLINK-3346","REV_AT_EPOCH":"6804","GP_ID":"228596651","ELEMENT_SET_NO":"999","MEAN_MOTION_DDOT":"0.0000000000000","ECCENTRICITY":"0.00009470","CENTER_NAME":"EARTH","OBJECT_TYPE":"PAYLOAD","COUNTRY_CODE":"US","RCS_SIZE":"LARGE","LAUNCH_DATE":"2022-01-06","SEMIMAJOR_AXIS":"6917.834","MEAN_MOTION":"15.08855318","OBJECT_ID":"2022-001U","INCLINATION":"53.2191","SITE":"AFETR"},{"ELEMENT_SET_NO":"999","MEAN_MOTION_DDOT":"0.0000000000000","ECCENTRICITY":"0.00012300","CENTER_NAME":"EARTH","OBJECT_TYPE":"PAYLOAD","COUNTRY_CODE":"US","RCS_SIZE":"LARGE","LAUNCH_DATE":"2022-01-06","SEMIMAJOR_AXIS":"6917.892","MEAN_MOTION":"15.08836132","OBJECT_ID":"2022-001V","INCLINATION":"53.2179","SITE":"AFETR","MEAN_MOTION_DOT":"-0.00000284","REF_FRAME":"TEME","TLE_LINE2":"2 50822  53.2179 354.3361 0001230  71.3773 288.7352 15.08836132 66795","FILE":"3866953","EPHEMERIS_TYPE":"0","PERIOD":"95.438","ARG_OF_PERICENTER":"71.3773","APOAPSIS":"540.608","NORAD_CAT_ID":"50822","DECAY_DATE":null,"MEAN_ANOMALY":"288.7352","CLASSIFICATION_TYPE":"U","MEAN_ELEMENT_THEORY":"SGP4","TLE_LINE1":"1 50822U 22001V   23080.92315399 -.00000284  00000-0  24269-6 0  9990","BSTAR":"0.00000024269000","RA_OF_ASC_NODE":"354.3361","PERIAPSIS":"538.906","EPOCH":"2023-03-21T22:09:20.504736","TIME_SYSTEM":"UTC","OBJECT_NAME":"STARLINK-3343","REV_AT_EPOCH":"6679","GP_ID":"228621709"},{"TLE_LINE1":"1 50823U 22001W   23080.16138947  .00001979  00000-0  14232-3 0  9996","MEAN_ELEMENT_THEORY":"SGP4","EPOCH":"2023-03-21T03:52:24.050208","PERIAPSIS":"539.184","BSTAR":"0.00014232000000","RA_OF_ASC_NODE":"357.7541","OBJECT_NAME":"STARLINK-3334","TIME_SYSTEM":"UTC","REV_AT_EPOCH":"6668","GP_ID":"228590205","TLE_LINE2":"2 50823  53.2164 357.7541 0000761  96.8707 263.2372 15.08851413 66681","FILE":"3866730","MEAN_MOTION_DOT":"0.00001979","REF_FRAME":"TEME","EPHEMERIS_TYPE":"0","PERIOD":"95.437","NORAD_CAT_ID":"50823","ARG_OF_PERICENTER":"96.8707","APOAPSIS":"540.237","DECAY_DATE":null,"CLASSIFICATION_TYPE":"U","MEAN_ANOMALY":"263.2372","COUNTRY_CODE":"US","MEAN_MOTION":"15.08851413","RCS_SIZE":"LARGE","SEMIMAJOR_AXIS":"6917.846","LAUNCH_DATE":"2022-01-06","SITE":"AFETR","INCLINATION":"53.2164","OBJECT_ID":"2022-001W","MEAN_MOTION_DDOT":"0.0000000000000","ELEMENT_SET_NO":"999","ECCENTRICITY":"0.00007610","OBJECT_TYPE":"PAYLOAD","CENTER_NAME":"EARTH"},{"FILE":"3866953","TLE_LINE2":"2 50824  53.2159 354.3493 0001355  96.3464 263.7683 15.08841866 66793","REF_FRAME":"TEME","MEAN_MOTION_DOT":"-0.00000403","PERIOD":"95.437","EPHEMERIS_TYPE":"0","NORAD_CAT_ID":"50824","ARG_OF_PERICENTER":"96.3464","APOAPSIS":"540.677","MEAN_ANOMALY":"263.7683","CLASSIFICATION_TYPE":"U","DECAY_DATE":null,"TLE_LINE1":"1 50824U 22001X   23080.91947225 -.00000403  00000-0 -72463-5 0  9992","MEAN_ELEMENT_THEORY":"SGP4","PERIAPSIS":"538.802","EPOCH":"2023-03-21T22:04:02.402400","RA_OF_ASC_NODE":"354.3493","BSTAR":"-0.00000724630000","TIME_SYSTEM":"UTC","OBJECT_NAME":"STARLINK-3340","GP_ID":"228620707","REV_AT_EPOCH":"6679","MEAN_MOTION_DDOT":"0.0000000000000","ELEMENT_SET_NO":"999","ECCENTRICITY":"0.00013550","OBJECT_TYPE":"PAYLOAD","CENTER_NAME":"EARTH","COUNTRY_CODE":"US","MEAN_MOTION":"15.08841866","LAUNCH_DATE":"2022-01-06","SEMIMAJOR_AXIS":"6917.875","RCS_SIZE":"LARGE","SITE":"AFETR","OBJECT_ID":"2022-001X","INCLINATION":"53.2159"},{"OBJECT_TYPE":"PAYLOAD","CENTER_NAME":"EARTH","MEAN_MOTION_DDOT":"0.0000000000000","ELEMENT_SET_NO":"999","ECCENTRICITY":"0.00013310","SITE":"AFETR","OBJECT_ID":"2022-001Y","INCLINATION":"53.2178","COUNTRY_CODE":"US","MEAN_MOTION":"15.08853812","LAUNCH_DATE":"2022-01-06","SEMIMAJOR_AXIS":"6917.838","RCS_SIZE":"LARGE","NORAD_CAT_ID":"50825","APOAPSIS":"540.624","ARG_OF_PERICENTER":"107.0638","CLASSIFICATION_TYPE":"U","MEAN_ANOMALY":"253.0500","DECAY_DATE":null,"FILE":"3866953","TLE_LINE2":"2 50825  53.2178 354.3191 0001331 107.0638 253.0500 15.08853812 66791","MEAN_MOTION_DOT":"0.00021016","REF_FRAME":"TEME","PERIOD":"95.437","EPHEMERIS_TYPE":"0","OBJECT_NAME":"STARLINK-3332","TIME_SYSTEM":"UTC","GP_ID":"228620959","REV_AT_EPOCH":"6679","TLE_LINE1":"1 50825U 22001Y   23080.92683419  .00021016  00000-0  13341-2 0  9994","MEAN_ELEMENT_THEORY":"SGP4","EPOCH":"2023-03-21T22:14:38.474016","PERIAPSIS":"538.782","BSTAR":"0.00133410000000","RA_OF_ASC_NODE":"354.3191"}];
